NORAD_CAT_ID,OBJECT_NAME,OBJECT_TYPE,EPOCH,MEAN_MOTION,ECCENTRICITY,INCLINATION,RA_OF_ASC_NODE,ARG_OF_PERICENTER,MEAN_ANOMALY,BSTAR,MEAN_MOTION_DOT,MEAN_MOTION_DDOT,TLE_LINE0,TLE_LINE1,TLE_LINE2,SEMIMAJOR_AXIS,PERIOD,APOGEE,PERIGEE,DECAYED
54007.0,STARLINK-5132,PAYLOAD,2024-03-25 12:42:16,15.08860588,0.0001522,53.2157,179.7542,95.7337,264.3829,0.0010912,0.00017131,0.0,0 STARLINK-5132,1 54007U 22125AV  24085.52936264  .00017131  00000-0  10912-2 0  9992,2 54007  53.2157 179.7542 0001522  95.7337 264.3829 15.08860588 81709,6917.817,95.436,540.735,538.63,0.0
54007.0,STARLINK-5132,PAYLOAD,2024-03-26 12:33:05,15.0881746,0.0001003,53.2166,175.2953,97.4267,262.6839,0.00014815,2.069e-05,0.0,0 STARLINK-5132,1 54007U 22125AV  24086.52298210  .00002069  00000-0  14815-3 0  9996,2 54007  53.2166 175.2953 0001003  97.4267 262.6839 15.08817460 81850,6917.949,95.439,540.508,539.12,0.0
54007.0,STARLINK-5132,PAYLOAD,2024-03-26 15:43:52,15.08820613,9.78e-05,53.216,174.6988,96.3296,263.7807,0.00046968,7.191e-05,0.0,0 STARLINK-5132,1 54007U 22125AV  24086.65546493  .00007191  00000-0  46968-3 0  9994,2 54007  53.2160 174.6988 0000978  96.3296 263.7807 15.08820613 81823,6917.94,95.439,540.481,539.128,0.0
54007.0,STARLINK-5132,PAYLOAD,2024-03-27 12:23:52,15.08874728,9.68e-05,53.2158,170.8357,84.8222,275.288,0.0017611,0.00027878,0.0,0 STARLINK-5132,1 54007U 22125AV  24087.51657911  .00027878  00000-0  17611-2 0  9994,2 54007  53.2158 170.8357 0000968  84.8222 275.2880 15.08874728 82004,6917.774,95.435,540.309,538.97,0.0
54007.0,STARLINK-5132,PAYLOAD,2024-03-27 21:56:10,15.08875008,0.0001019,53.2156,169.0505,80.1654,279.9453,0.00074101,0.00011536,0.0,0 STARLINK-5132,1 54007U 22125AV  24087.91401201  .00011536  00000-0  74101-3 0  9999,2 54007  53.2156 169.0505 0001019  80.1654 279.9453 15.08875008 82013,6917.773,95.435,540.343,538.933,0.0
54007.0,STARLINK-5132,PAYLOAD,2024-03-28 12:14:39,15.08846463,0.0001182,53.2156,166.3747,89.5182,270.5945,0.0015809,0.00024966,0.0,0 STARLINK-5132,1 54007U 22125AV  24088.51017574  .00024966  00000-0  15809-2 0  9992,2 54007  53.2156 166.3747 0001182  89.5182 270.5945 15.08846463 82152,6917.861,95.437,540.543,538.908,0.0
54007.0,STARLINK-5132,PAYLOAD,2024-03-28 21:46:58,15.08851662,0.0001408,53.216,164.5897,79.17,280.9451,0.0010834,0.00017002,0.0,0 STARLINK-5132,1 54007U 22125AV  24088.90761577  .00017002  00000-0  10834-2 0  9990,2 54007  53.2160 164.5897 0001408  79.1700 280.9451 15.08851662 82160,6917.845,95.437,540.684,538.736,0.0
54007.0,STARLINK-5132,PAYLOAD,2024-03-29 12:05:26,15.0884611,0.0001473,53.2164,161.9183,104.8045,255.3111,0.00026715,3.967e-05,0.0,0 STARLINK-5132,1 54007U 22125AV  24089.50377462  .00003967  00000-0  26715-3 0  9994,2 54007  53.2164 161.9183 0001473 104.8045 255.3111 15.08846110 82300,6917.862,95.437,540.746,538.708,0.0
54007.0,STARLINK-5132,PAYLOAD,2024-03-29 21:37:44,15.08842799,0.0001425,53.2154,160.1337,103.817,256.298,0.00012699,1.734e-05,0.0,0 STARLINK-5132,1 54007U 22125AV  24089.90121493  .00001734  00000-0  12699-3 0  9995,2 54007  53.2154 160.1337 0001425 103.8170 256.2980 15.08842799 82310,6917.872,95.437,540.723,538.751,0.0
54007.0,STARLINK-5132,PAYLOAD,2024-03-30 03:59:17,15.08843352,0.0001501,53.2154,158.9444,102.814,257.302,0.00017026,2.423e-05,0.0,0 STARLINK-5132,1 54007U 22125AV  24090.16617536  .00002423  00000-0  17026-3 0  9998,2 54007  53.2154 158.9444 0001501 102.8140 257.3020 15.08843352 82408,6917.87,95.437,540.774,538.697,0.0
54007.0,STARLINK-5132,PAYLOAD,2024-03-30 11:56:13,15.08842867,0.0001409,53.2153,157.4573,101.6414,258.4736,0.00013421,1.849e-05,0.0,0 STARLINK-5132,1 54007U 22125AV  24090.49737594  .00001849  00000-0  13421-3 0  9997,2 54007  53.2153 157.4573 0001409 101.6414 258.4736 15.08842867 82408,6917.872,95.437,540.711,538.762,0.0
54007.0,STARLINK-5132,PAYLOAD,2024-03-30 21:28:32,15.08843261,0.0001308,53.2151,155.6712,96.6591,263.455,0.00014275,1.985e-05,0.0,0 STARLINK-5132,1 54007U 22125AV  24090.89481624  .00001985  00000-0  14275-3 0  9990,2 54007  53.2151 155.6712 0001308  96.6591 263.4550 15.08843261 82463,6917.87,95.437,540.64,538.831,0.0
54007.0,STARLINK-5132,PAYLOAD,2024-03-31 03:50:04,15.08841328,0.0001366,53.2145,154.4815,86.2615,273.8533,0.00015773,2.223e-05,0.0,0 STARLINK-5132,1 54007U 22125AV  24091.15977842  .00002223  00000-0  15773-3 0  9992,2 54007  53.2145 154.4815 0001366  86.2615 273.8533 15.08841328 82551,6917.876,95.437,540.686,538.796,0.0
54007.0,STARLINK-5132,PAYLOAD,2024-03-31 11:47:00,15.08844403,0.0001465,53.2155,152.9954,87.3468,272.7692,9.1426e-05,1.168e-05,0.0,0 STARLINK-5132,1 54007U 22125AV  24091.49097614  .00001168  00000-0  91426-4 0  9996,2 54007  53.2155 152.9954 0001465  87.3468 272.7692 15.08844403 82558,6917.867,95.437,540.745,538.718,0.0
54007.0,STARLINK-5132,PAYLOAD,2024-03-31 21:19:19,15.08844608,0.0001481,53.2154,151.2113,87.1521,272.9641,9.3361e-05,1.198e-05,0.0,0 STARLINK-5132,1 54007U 22125AV  24091.88841619  .00001198  00000-0  93361-4 0  9994,2 54007  53.2154 151.2113 0001481  87.1521 272.9641 15.08844608 82612,6917.866,95.437,540.756,538.707,0.0
54007.0,STARLINK-5132,PAYLOAD,2024-04-01 10:02:24,15.0883969,0.0001438,53.2141,148.8313,90.0705,270.0452,8.1977e-05,1.017e-05,0.0,0 STARLINK-5132,1 54007U 22125AV  24092.41833879  .00001017  00000-0  81977-4 0  9993,2 54007  53.2141 148.8313 0001438  90.0705 270.0452 15.08839690 82749,6917.881,95.438,540.741,538.752,0.0
54007.0,STARLINK-5132,PAYLOAD,2024-04-01 13:13:10,15.08845897,0.0001551,53.2154,148.2367,89.8225,270.2945,0.00015094,2.115e-05,0.0,0 STARLINK-5132,1 54007U 22125AV  24092.55081585  .00002115  00000-0  15094-3 0  9993,2 54007  53.2154 148.2367 0001551  89.8225 270.2945 15.08845897 82717,6917.862,95.437,540.8,538.654,0.0
54007.0,STARLINK-5132,PAYLOAD,2024-04-02 09:53:11,15.08843735,0.0001481,53.2163,144.3687,97.614,262.502,4.0761e-05,3.61e-06,0.0,0 STARLINK-5132,1 54007U 22125AV  24093.41193811  .00000361  00000-0  40761-4 0  9996,2 54007  53.2163 144.3687 0001481  97.6140 262.5020 15.08843735 82845,6917.869,95.437,540.759,538.709,0.0
54007.0,STARLINK-5132,PAYLOAD,2024-04-03 12:54:44,15.08840184,0.0001526,53.216,139.3118,102.5006,257.6157,6.2618e-05,7.09e-06,0.0,0 STARLINK-5132,1 54007U 22125AV  24094.53801863  .00000709  00000-0  62618-4 0  9994,2 54007  53.2160 139.3118 0001526 102.5006 257.6157 15.08840184 83068,6917.88,95.438,540.8,538.689,0.0
54007.0,STARLINK-5132,PAYLOAD,2024-04-04 09:34:45,15.08839823,0.0001511,53.2166,135.4484,88.5386,271.5779,8.9585e-05,1.138e-05,0.0,0 STARLINK-5132,1 54007U 22125AV  24095.39913959  .00001138  00000-0  89585-4 0  9998,2 54007  53.2166 135.4484 0001511  88.5386 271.5779 15.08839823 83147,6917.881,95.438,540.791,538.701,0.0
54007.0,STARLINK-5132,PAYLOAD,2024-04-04 19:07:04,15.08839169,0.0001475,53.2164,133.6646,87.5605,272.5556,5.0507e-05,5.16e-06,0.0,0 STARLINK-5132,1 54007U 22125AV  24095.79658078  .00000516  00000-0  50507-4 0  9991,2 54007  53.2164 133.6646 0001475  87.5605 272.5556 15.08839169 83256,6917.883,95.438,540.768,538.728,0.0
54007.0,STARLINK-5132,PAYLOAD,2024-04-05 09:25:32,15.08838035,0.0001535,53.217,130.9897,91.9209,268.1959,3.1887e-05,2.2e-06,0.0,0 STARLINK-5132,1 54007U 22125AV  24096.39274280  .00000220  00000-0  31887-4 0  9999,2 54007  53.2170 130.9897 0001535  91.9209 268.1959 15.08838035 83290,6917.886,95.438,540.813,538.689,0.0
54007.0,STARLINK-5132,PAYLOAD,2024-04-06 01:19:24,15.08836869,0.0001544,53.2171,128.0165,93.0688,267.0481,5.1789e-05,5.36e-06,0.0,0 STARLINK-5132,1 54007U 22125AV  24097.05514348  .00000536  00000-0  51789-4 0  9998,2 54007  53.2171 128.0165 0001544  93.0688 267.0481 15.08836869 83449,6917.89,95.438,540.823,538.687,0.0
54007.0,STARLINK-5132,PAYLOAD,2024-04-06 09:16:20,15.08838172,0.0001523,53.2169,126.5294,92.0594,268.0572,3.391e-05,2.52e-06,0.0,0 STARLINK-5132,1 54007U 22125AV  24097.38634411  .00000252  00000-0  33910-4 0  9999,2 54007  53.2169 126.5294 0001523  92.0594 268.0572 15.08838172 83445,6917.886,95.438,540.805,538.697,0.0
54007.0,STARLINK-5132,PAYLOAD,2024-04-06 18:48:39,15.08835589,0.0001533,53.2171,124.7452,91.7121,268.4047,2.3338e-05,8.3e-07,0.0,0 STARLINK-5132,1 54007U 22125AV  24097.78378698  .00000083  00000-0  23338-4 0  9990,2 54007  53.2171 124.7452 0001533  91.7121 268.4047 15.08835589 83504,6917.894,95.438,540.819,538.698,0.0
54007.0,STARLINK-5132,PAYLOAD,2024-04-07 09:07:07,15.08834343,0.0001509,53.2166,122.0682,89.2127,270.9038,2.3605e-05,8.8e-07,0.0,0 STARLINK-5132,1 54007U 22125AV  24098.37995011  .00000088  00000-0  23605-4 0  9992,2 54007  53.2166 122.0682 0001509  89.2127 270.9038 15.08834343 83645,6917.898,95.438,540.807,538.719,0.0
54007.0,STARLINK-5132,PAYLOAD,2024-04-07 18:39:26,15.0883645,0.000151,53.2166,120.2835,87.3418,272.7747,4.7189e-05,4.63e-06,0.0,0 STARLINK-5132,1 54007U 22125AV  24098.77738943  .00000463  00000-0  47189-4 0  9995,2 54007  53.2166 120.2835 0001510  87.3418 272.7747 15.08836450 83658,6917.891,95.438,540.801,538.712,0.0
54007.0,STARLINK-5132,PAYLOAD,2024-04-08 08:57:54,15.08840071,0.0001456,53.2163,117.6066,88.9897,271.1262,6.3546e-05,7.24e-06,0.0,0 STARLINK-5132,1 54007U 22125AV  24099.37354764  .00000724  00000-0  63546-4 0  9992,2 54007  53.2163 117.6066 0001456  88.9897 271.1262 15.08840071 83747,6917.88,95.438,540.752,538.738,0.0
54007.0,STARLINK-5132,PAYLOAD,2024-04-08 18:30:13,15.08841987,0.0001458,53.2165,115.8226,88.7441,271.3718,8.7483e-05,1.105e-05,0.0,0 STARLINK-5132,1 54007U 22125AV  24099.77098587  .00001105  00000-0  87483-4 0  9994,2 54007  53.2165 115.8226 0001458  88.7441 271.3718 15.08841987 83859,6917.874,95.437,540.748,538.731,0.0
54007.0,STARLINK-5132,PAYLOAD,2024-04-09 00:51:45,15.08841142,0.0001442,53.2165,114.6327,89.5006,270.6151,0.0001135,1.519e-05,0.0,0 STARLINK-5132,1 54007U 22125AV  24100.03594538  .00001519  00000-0  11350-3 0  9991,2 54007  53.2165 114.6327 0001442  89.5006 270.6151 15.08841142 83842,6917.877,95.437,540.739,538.744,0.0
